[{"OBJECT_NAME":"STARLINK-4457","OBJECT_ID":"2022-105R","EPOCH":"2026-03-09T15:04:12.549792","MEAN_MOTION":15.05645896,"ECCENTRICITY":0.0002008,"INCLINATION":97.6034,"RA_OF_ASC_NODE":311.2025,"ARG_OF_PERICENTER":88.0531,"MEAN_ANOMALY":272.0926,"EPHEMERIS_TYPE":0,"CLASSIFICATION_TYPE":"U","NORAD_CAT_ID":53663,"ELEMENT_SET_NO":999,"REV_AT_EPOCH":19329,"BSTAR":5.1167e-5,"MEAN_MOTION_DOT":6.77e-6,"MEAN_MOTION_DDOT":0},{"OBJECT_NAME":"COSMOS 886 DEB","OBJECT_ID":"1976-126BC","EPOCH":"2026-03-09T23:00:40.110048","MEAN_MOTION":13.88993613,"ECCENTRICITY":0.05615405,"INCLINATION":65.7639,"RA_OF_ASC_NODE":244.6412,"ARG_OF_PERICENTER":232.9023,"MEAN_ANOMALY":121.9468,"EPHEMERIS_TYPE":0,"CLASSIFICATION_TYPE":"U","NORAD_CAT_ID":9962,"ELEMENT_SET_NO":999,"REV_AT_EPOCH":38225,"BSTAR":0.00180306,"MEAN_MOTION_DOT":7.881e-5,"MEAN_MOTION_DDOT":0}]
